[
    {
        "city_id": "22",
        "province_id": "9",
        "province": "Jawa Barat",
        "type": "Kabupaten",
        "city_name": "Bandung",
        "postal_code": "40311"
    },
    {
        "city_id": "23",
        "province_id": "9",
        "province": "Jawa Barat",
        "type": "Kota",
        "city_name": "Bandung",
        "postal_code": "40111"
    },
    {
        "city_id": "24",
        "province_id": "9",
        "province": "Jawa Barat",
        "type": "Kabupaten",
        "city_name": "Bandung Barat",
        "postal_code": "40721"
    },
    {
        "city_id": "34",
        "province_id": "9",
        "province": "Jawa Barat",
        "type": "Kota",
        "city_name": "Banjar",
        "postal_code": "46311"
    },
    {
        "city_id": "54",
        "province_id": "9",
        "province": "Jawa Barat",
        "type": "Kabupaten",
        "city_name": "Bekasi",
        "postal_code": "17837"
    },
    {
        "city_id": "55",
        "province_id": "9",
        "province": "Jawa Barat",
        "type": "Kota",
        "city_name": "Bekasi",
        "postal_code": "17121"
    },
    {
        "city_id": "78",
        "province_id": "9",
        "province": "Jawa Barat",
        "type": "Kabupaten",
        "city_name": "Bogor",
        "postal_code": "16911"
    },
    {
        "city_id": "79",
        "province_id": "9",
        "province": "Jawa Barat",
        "type": "Kota",
        "city_name": "Bogor",
        "postal_code": "16119"
    },
    {
        "city_id": "103",
        "province_id": "9",
        "province": "Jawa Barat",
        "type": "Kabupaten",
        "city_name": "Ciamis",
        "postal_code": "46211"
    },
    {
        "city_id": "104",
        "province_id": "9",
        "province": "Jawa Barat",
        "type": "Kabupaten",
        "city_name": "Cianjur",
        "postal_code": "43217"
    },
    {
        "city_id": "107",
        "province_id": "9",
        "province": "Jawa Barat",
        "type": "Kota",
        "city_name": "Cimahi",
        "postal_code": "40512"
    },
    {
        "city_id": "108",
        "province_id": "9",
        "province": "Jawa Barat",
        "type": "Kabupaten",
        "city_name": "Cirebon",
        "postal_code": "45611"
    },
    {
        "city_id": "109",
        "province_id": "9",
        "province": "Jawa Barat",
        "type": "Kota",
        "city_name": "Cirebon",
        "postal_code": "45116"
    },
    {
        "city_id": "115",
        "province_id": "9",
        "province": "Jawa Barat",
        "type": "Kota",
        "city_name": "Depok",
        "postal_code": "16416"
    },
    {
        "city_id": "126",
        "province_id": "9",
        "province": "Jawa Barat",
        "type": "Kabupaten",
        "city_name": "Garut",
        "postal_code": "44126"
    },
    {
        "city_id": "149",
        "province_id": "9",
        "province": "Jawa Barat",
        "type": "Kabupaten",
        "city_name": "Indramayu",
        "postal_code": "45214"
    },
    {
        "city_id": "171",
        "province_id": "9",
        "province": "Jawa Barat",
        "type": "Kabupaten",
        "city_name": "Karawang",
        "postal_code": "41311"
    },
    {
        "city_id": "211",
        "province_id": "9",
        "province": "Jawa Barat",
        "type": "Kabupaten",
        "city_name": "Kuningan",
        "postal_code": "45511"
    },
    {
        "city_id": "252",
        "province_id": "9",
        "province": "Jawa Barat",
        "type": "Kabupaten",
        "city_name": "Majalengka",
        "postal_code": "45412"
    },
    {
        "city_id": "332",
        "province_id": "9",
        "province": "Jawa Barat",
        "type": "Kabupaten",
        "city_name": "Pangandaran",
        "postal_code": "46511"
    },
    {
        "city_id": "376",
        "province_id": "9",
        "province": "Jawa Barat",
        "type": "Kabupaten",
        "city_name": "Purwakarta",
        "postal_code": "41119"
    },
    {
        "city_id": "428",
        "province_id": "9",
        "province": "Jawa Barat",
        "type": "Kabupaten",
        "city_name": "Subang",
        "postal_code": "41215"
    },
    {
        "city_id": "430",
        "province_id": "9",
        "province": "Jawa Barat",
        "type": "Kabupaten",
        "city_name": "Sukabumi",
        "postal_code": "43311"
    },
    {
        "city_id": "431",
        "province_id": "9",
        "province": "Jawa Barat",
        "type": "Kota",
        "city_name": "Sukabumi",
        "postal_code": "43114"
    },
    {
        "city_id": "440",
        "province_id": "9",
        "province": "Jawa Barat",
        "type": "Kabupaten",
        "city_name": "Sumedang",
        "postal_code": "45326"
    },
    {
        "city_id": "468",
        "province_id": "9",
        "province": "Jawa Barat",
        "type": "Kabupaten",
        "city_name": "Tasikmalaya",
        "postal_code": "46411"
    },
    {
        "city_id": "469",
        "province_id": "9",
        "province": "Jawa Barat",
        "type": "Kota",
        "city_name": "Tasikmalaya",
        "postal_code": "46116"
    }
]