[
    {
        "city_id": "13",
        "province_id": "23",
        "province": "Nusa Tenggara Timur (NTT)",
        "type": "Kabupaten",
        "city_name": "Alor",
        "postal_code": "85811"
    },
    {
        "city_id": "58",
        "province_id": "23",
        "province": "Nusa Tenggara Timur (NTT)",
        "type": "Kabupaten",
        "city_name": "Belu",
        "postal_code": "85711"
    },
    {
        "city_id": "122",
        "province_id": "23",
        "province": "Nusa Tenggara Timur (NTT)",
        "type": "Kabupaten",
        "city_name": "Ende",
        "postal_code": "86351"
    },
    {
        "city_id": "125",
        "province_id": "23",
        "province": "Nusa Tenggara Timur (NTT)",
        "type": "Kabupaten",
        "city_name": "Flores Timur",
        "postal_code": "86213"
    },
    {
        "city_id": "212",
        "province_id": "23",
        "province": "Nusa Tenggara Timur (NTT)",
        "type": "Kabupaten",
        "city_name": "Kupang",
        "postal_code": "85362"
    },
    {
        "city_id": "213",
        "province_id": "23",
        "province": "Nusa Tenggara Timur (NTT)",
        "type": "Kota",
        "city_name": "Kupang",
        "postal_code": "85119"
    },
    {
        "city_id": "234",
        "province_id": "23",
        "province": "Nusa Tenggara Timur (NTT)",
        "type": "Kabupaten",
        "city_name": "Lembata",
        "postal_code": "86611"
    },
    {
        "city_id": "269",
        "province_id": "23",
        "province": "Nusa Tenggara Timur (NTT)",
        "type": "Kabupaten",
        "city_name": "Manggarai",
        "postal_code": "86551"
    },
    {
        "city_id": "270",
        "province_id": "23",
        "province": "Nusa Tenggara Timur (NTT)",
        "type": "Kabupaten",
        "city_name": "Manggarai Barat",
        "postal_code": "86711"
    },
    {
        "city_id": "271",
        "province_id": "23",
        "province": "Nusa Tenggara Timur (NTT)",
        "type": "Kabupaten",
        "city_name": "Manggarai Timur",
        "postal_code": "86811"
    },
    {
        "city_id": "301",
        "province_id": "23",
        "province": "Nusa Tenggara Timur (NTT)",
        "type": "Kabupaten",
        "city_name": "Nagekeo",
        "postal_code": "86911"
    },
    {
        "city_id": "304",
        "province_id": "23",
        "province": "Nusa Tenggara Timur (NTT)",
        "type": "Kabupaten",
        "city_name": "Ngada",
        "postal_code": "86413"
    },
    {
        "city_id": "383",
        "province_id": "23",
        "province": "Nusa Tenggara Timur (NTT)",
        "type": "Kabupaten",
        "city_name": "Rote Ndao",
        "postal_code": "85982"
    },
    {
        "city_id": "385",
        "province_id": "23",
        "province": "Nusa Tenggara Timur (NTT)",
        "type": "Kabupaten",
        "city_name": "Sabu Raijua",
        "postal_code": "85391"
    },
    {
        "city_id": "412",
        "province_id": "23",
        "province": "Nusa Tenggara Timur (NTT)",
        "type": "Kabupaten",
        "city_name": "Sikka",
        "postal_code": "86121"
    },
    {
        "city_id": "434",
        "province_id": "23",
        "province": "Nusa Tenggara Timur (NTT)",
        "type": "Kabupaten",
        "city_name": "Sumba Barat",
        "postal_code": "87219"
    },
    {
        "city_id": "435",
        "province_id": "23",
        "province": "Nusa Tenggara Timur (NTT)",
        "type": "Kabupaten",
        "city_name": "Sumba Barat Daya",
        "postal_code": "87453"
    },
    {
        "city_id": "436",
        "province_id": "23",
        "province": "Nusa Tenggara Timur (NTT)",
        "type": "Kabupaten",
        "city_name": "Sumba Tengah",
        "postal_code": "87358"
    },
    {
        "city_id": "437",
        "province_id": "23",
        "province": "Nusa Tenggara Timur (NTT)",
        "type": "Kabupaten",
        "city_name": "Sumba Timur",
        "postal_code": "87112"
    },
    {
        "city_id": "479",
        "province_id": "23",
        "province": "Nusa Tenggara Timur (NTT)",
        "type": "Kabupaten",
        "city_name": "Timor Tengah Selatan",
        "postal_code": "85562"
    },
    {
        "city_id": "480",
        "province_id": "23",
        "province": "Nusa Tenggara Timur (NTT)",
        "type": "Kabupaten",
        "city_name": "Timor Tengah Utara",
        "postal_code": "85612"
    }
]