[
    {
        "city_id": "106",
        "province_id": "3",
        "province": "Banten",
        "type": "Kota",
        "city_name": "Cilegon",
        "postal_code": "42417"
    },
    {
        "city_id": "232",
        "province_id": "3",
        "province": "Banten",
        "type": "Kabupaten",
        "city_name": "Lebak",
        "postal_code": "42319"
    },
    {
        "city_id": "331",
        "province_id": "3",
        "province": "Banten",
        "type": "Kabupaten",
        "city_name": "Pandeglang",
        "postal_code": "42212"
    },
    {
        "city_id": "402",
        "province_id": "3",
        "province": "Banten",
        "type": "Kabupaten",
        "city_name": "Serang",
        "postal_code": "42182"
    },
    {
        "city_id": "403",
        "province_id": "3",
        "province": "Banten",
        "type": "Kota",
        "city_name": "Serang",
        "postal_code": "42111"
    },
    {
        "city_id": "455",
        "province_id": "3",
        "province": "Banten",
        "type": "Kabupaten",
        "city_name": "Tangerang",
        "postal_code": "15914"
    },
    {
        "city_id": "456",
        "province_id": "3",
        "province": "Banten",
        "type": "Kota",
        "city_name": "Tangerang",
        "postal_code": "15111"
    },
    {
        "city_id": "457",
        "province_id": "3",
        "province": "Banten",
        "type": "Kota",
        "city_name": "Tangerang Selatan",
        "postal_code": "15435"
    }
]